IRIDIUM 7 [-]           
1 24793U 97020B   23267.94091973  .00000620  00000+0  21136-3 0  9998
2 24793  86.3905  81.2948 0002235  85.5107 274.6344 14.34897624381345
IRIDIUM 5 [-]           
1 24795U 97020D   23267.79045837  .00006893  00000+0  70327-3 0  9995
2 24795  86.4001  12.2116 0127563 225.7926 133.2766 14.84552480391505
IRIDIUM 4 [-]           
1 24796U 97020E   23267.90813093  .00000740  00000+0  24919-3 0  9997
2 24796  86.3904  78.6033 0002215  91.3064 268.8386 14.35805868381854
IRIDIUM 914 [-]         
1 24836U 97030A   23267.88260816  .00000748  00000+0  23334-3 0  9997
2 24836  86.3873  89.0668 0003585 113.5758 246.5818 14.39598963516269
IRIDIUM 16 [-]          
1 24841U 97030F   23267.67643509  .00000621  00000+0  20097-3 0  9997
2 24841  86.3990 110.4593 0002477  32.1693 327.9655 14.37496488376246
IRIDIUM 911 [-]         
1 24842U 97030G   23267.93763199  .00000802  00000+0  21936-3 0  9999
2 24842  86.4416 109.6952 0015943  46.1417 314.1100 14.46008292383817
IRIDIUM 17 [-]          
1 24870U 97034B   23267.75602535  .00000581  00000+0  19092-3 0  9994
2 24870  86.3977 140.0891 0000698  36.0441 324.0803 14.36599381372895
IRIDIUM 920 [-]         
1 24871U 97034C   23267.68830882  .00000581  00000+0  17692-3 0  9999
2 24871  86.3949 120.8296 0012089  13.8417 346.3111 14.40312573375649
